ISS OBJECT XW           
1 66910U 98067XW  26048.85700616  .00094482  00000+0  99255-3 0  9994
2 66910  51.6265 166.2147 0002859 349.6271  10.4664 15.63556314 12072
ISS OBJECT XX           
1 66911U 98067XX  26048.53853498  .00144455  00000+0  13082-2 0  9996
2 66911  51.6243 167.0837 0004567 339.0824  20.9985 15.67071229 12027
ISS OBJECT XY           
1 66912U 98067XY  26048.55361185  .00067824  00000+0  81767-3 0  9996
2 66912  51.6291 168.6991 0000932 354.2320   5.8663 15.60143157 12007
ISS OBJECT XZ           
1 67683U 98067XZ  26048.55996253  .00034002  00000+0  59633-3 0  9991
2 67683  51.6311 171.7382 0010438 120.3988 239.8034 15.50177657  1661
GXIBA-1                 
1 67684U 98067YA  26048.55474937  .00059962  00000+0  10040-2 0  9992
2 67684  51.6311 171.7048 0012007 113.2004 247.0252 15.51206196  1660
CORAL                   
1 67685U 98067YB  26048.88125075  .00040088  00000+0  69545-3 0  9999
2 67685  51.6310 170.1343 0012300 117.1284 243.0961 15.50382591  1712
ISS OBJECT YC           
1 67686U 98067YC  26048.55801583  .00042395  00000+0  73145-3 0  9993
2 67686  51.6320 171.7264 0007773  88.8855 271.3025 15.50561623  1663
LEOPARD                 
1 67687U 98067YD  26048.62383860  .00037832  00000+0  66033-3 0  9993
2 67687  51.6322 171.4167 0007889  91.8390 268.3503 15.50286093  1595
ISS OBJECT YE           
1 67688U 98067YE  26048.62283168  .00043336  00000+0  74973-3 0  9992
2 67688  51.6318 171.4087 0007740  89.9843 270.2033 15.50474672  1591
CREW DRAGON 12          
1 67796U 26031A   26048.82815417  .00009688  00000+0  18560-3 0  9996
2 67796  51.6322 170.5300 0010976 108.9064 251.3115 15.48671179   673
